COSMOS 1892             
1 18421U 87088A   20079.04436756  .00000455  00000-0  21267-4 0  9996
2 18421  82.5033   3.0196 0015881  25.8296 334.3726 15.17069384771066
SL-14 R/B               
1 18749U 88001B   20079.15199206  .00000078  00000-0  65963-5 0  9996
2 18749  82.5112  82.2699 0017481 233.0277 173.0079 14.83212212739586
COSMOS 1933             
1 18958U 88020A   20078.62866382  .00000063  00000-0  24694-5 0  9996
2 18958  82.5306 213.2847 0013213 100.5732 259.6983 15.03692993742600
SL-3 R/B                
1 19046U 88032B   20078.76727886 -.00000199  00000-0 -10359-4 0  9992
2 19046  97.4090 103.8160 0037389 152.9702 207.3482 15.02666031723633
SL-16 R/B               
1 19120U 88039B   20078.19273869  .00000005  00000-0  25342-4 0  9998
2 19120  71.0176   1.3596 0019626  87.0351 273.3020 14.19207447648979
COSMOS 1953             
1 19210U 88050A   20078.21809926 -.00000108  00000-0 -94761-5 0  9991
2 19210  82.5159 138.3971 0015225  73.8420 286.4482 15.05923301729063
SL-8 R/B                
1 19257U 88053B   20078.53852481  .00000008  00000-0  11536-4 0  9999
2 19257  74.0500 168.1521 0020239 173.2471 198.0392 14.37458464663224
COSMOS 1975             
1 19573U 88093A   20078.52607125  .00000422  00000-0  27756-4 0  9997
2 19573  82.5173  92.2542 0015597 111.2458 249.0436 15.04835195710979
SL-14 R/B               
1 19574U 88093B   20079.18174593  .00000080  00000-0  67407-5 0  9997
2 19574  82.5292 284.4540 0022640  42.7387  95.9709 14.83322503698573
SL-16 R/B               
1 19650U 88102B   20078.20095238  .00000291  00000-0  17217-3 0  9999
2 19650  70.9996  61.7898 0012070  94.1419 266.1084 14.15788471618244
INTERCOSMOS 24          
1 20261U 89080A   20078.69215506  .00000045  00000-0  12701-4 0  9991
2 20261  82.5993  79.0209 1201802 297.2723  51.0972 12.56098505392191
SL-14 R/B               
1 20262U 89080C   20079.21832446  .00000050  00000-0  53231-5 0  9999
2 20262  82.5918 131.7422 1237841 122.8600 249.7817 12.48936318387306
DELTA 2 R/B(1)          
1 20303U 89085B   20078.72503654  .00001492  00000-0  50453-4 0  9994
2 20303  35.6275 220.3864 0094740  89.2510 271.9071 15.27031339654187
DELTA 1 R/B             
1 20323U 89089B   20079.20070640  .00000009  00000-0  11140-4 0  9991
2 20323  97.0756 239.5258 0072497 154.0801 206.4056 14.48337487600332
DELTA 2 R/B(1)          
1 20362U 89097B   20071.22570222  .11608607  21938-5  21862-3 0  9997
2 20362  35.6253  35.8055 0001537 235.4649 152.4826 16.47656705656668
ARIANE 40 R/B           
1 20443U 90005H   20079.13272082 -.00000026  00000-0  60322-5 0  9997
2 20443  98.5868 141.0587 0009399 249.3452 110.6727 14.38082505579397
DELTA 2 R/B(1)          
1 20453U 90008B   20079.15125298  .00001086  00000-0  62293-4 0  9993
2 20453  35.6266  68.7378 0282177 271.1411  85.6992 14.85338573597767
COSMOS 2058             
1 20465U 90010A   20079.07187988  .00000218  00000-0  16105-4 0  9991
2 20465  82.4924   0.3177 0016330 140.9248 219.3158 14.97979482635909
SL-14 R/B               
1 20466U 90010B   20078.76226518  .00000053  00000-0  37884-5 0  9995
2 20466  82.5045 151.6573 0018958 275.8183  84.0870 14.81378381626361
SL-14 R/B               
1 20511U 90018B   20078.82074208  .00000068  00000-0  58305-5 0  9995
2 20511  82.5199  97.5715 0018797  58.0402 114.8792 14.80034511620805
HST                     
1 20580U 90037B   20078.78227310  .00000439  00000-0  15736-4 0  9993
2 20580  28.4688 199.3580 0002587 191.1933 303.5598 15.09354419442348
SL-16 R/B               
1 20625U 90046B   20078.50188112  .00000153  00000-0  10412-3 0  9997
2 20625  70.9999 199.1019 0013656  11.5426 348.6007 14.14655913540006
COSMOS 2084             
1 20663U 90055A   20079.24627667 -.00000031  00000-0  15013-4 0  9993
2 20663  62.7936 109.3678 0035312 224.5500 135.2754 14.92064877609907
SL-6 R/B(2)             
1 20666U 90055D   20079.11297589 -.00000046  00000-0  13441-4 0  9997
2 20666  62.7878  26.4494 0032389 315.9553  43.8961 14.92316214611287
SL-8 R/B                
1 20775U 90078B   20078.48091582  .00001754  00000-0  82512-4 0  9998
2 20775  82.9254 301.6392 0575819 116.4508 249.6937 14.34129500492696
SL-8 R/B                
1 21088U 91006B   20078.22167666  .00000032  00000-0  16863-4 0  9991
2 21088  82.9465 353.0564 0023338  29.5957 124.5165 13.77144144463921
OKEAN-3                 
1 21397U 91039A   20079.23239361  .00000230  00000-0  19532-4 0  9990
2 21397  82.5189 262.4406 0019270 110.1468 250.1827 14.92899318559863
COSMOS 2151             
1 21422U 91042A   20079.06131725  .00000119  00000-0  91562-5 0  9999
2 21422  82.5036   9.0052 0014318 168.7831 191.3711 14.92114717558484
SL-14 R/B               
1 21423U 91042B   20079.19164948  .00000068  00000-0  59280-5 0  9991
2 21423  82.4909 101.2715 0017286 190.0322 170.0548 14.79785023551354
ERS-1                   
1 21574U 91050A   20078.66690910  .00000039  00000-0  27501-4 0  9999
2 21574  98.5872  32.0481 0032529 195.5680 164.4509 14.37733242502050
ARIANE 40 R/B           
1 21610U 91050F   20079.13248788 -.00000003  00000-0  12749-4 0  9995
2 21610  98.4738 149.2312 0003760 153.7085 261.7937 14.40896900504979
INTERCOSMOS 25          
1 21819U 91086A   20078.76463537  .00000220  00000-0  36874-4 0  9999
2 21819  82.6090 180.5787 1515432 105.3186 271.9981 12.05181755233380
SL-8 R/B                
1 21876U 92008B   20077.52409543  .00000107  00000-0  94366-4 0  9991
2 21876  82.9229  90.7553 0036135 109.7345 359.5816 13.75649537409239
SL-8 R/B                
1 21938U 92020B   20078.80871458  .00000022  00000-0  73077-5 0  9997
2 21938  82.9326 333.8733 0027882 266.6611 140.5687 13.75276111401516
COSMOS 2219             
1 22219U 92076A   20079.20948092 -.00000227  00000-0 -95201-4 0  9996
2 22219  71.0588 256.2278 0020838 290.1424  69.7457 14.13642909410385
SL-16 R/B               
1 22220U 92076B   20078.84687318  .00000219  00000-0  13407-3 0  9994
2 22220  70.9984 102.3164 0013174 190.6329 342.5522 14.16452565413178
COSMOS 2221             
1 22236U 92080A   20078.36792251  .00000154  00000-0  14104-4 0  9990
2 22236  82.5109 189.7130 0015181 262.9257  97.0234 14.87903419476772
SL-16 R/B               
1 22285U 92093B   20078.74641560  .00000096  00000-0  73973-4 0  9990
2 22285  71.0201 262.8081 0003437   3.3976 356.7169 14.15044246404785
COSMOS 2228             
1 22286U 92094A   20079.20760950  .00000182  00000-0  16951-4 0  9998
2 22286  82.5208 145.0623 0021665  25.2124 335.0146 14.88120617472096
SL-16 R/B               
1 22566U 93016B   20079.19195554  .00000068  00000-0  59885-4 0  9990
2 22566  71.0064 115.2211 0008922  31.8965 328.2696 14.14968606393575
COSMOS 2242             
1 22626U 93024A   20078.10061370  .00000132  00000-0  11635-4 0  9997
2 22626  82.5245 174.1842 0019513  29.0823 331.1477 14.87975463455572
SL-16 R/B               
1 22803U 93059B   20078.82024306  .00000049  00000-0  48287-4 0  9999
2 22803  70.9881 290.2672 0019275 290.9654  68.9407 14.16819546370725
ARIANE 40 R/B           
1 22830U 93061H   20079.13341665 -.00000033  00000-0  47716-5 0  9998
2 22830  98.7778 127.4304 0010277 222.2854 137.7537 14.31445388382159
COSMOS 2278             
1 23087U 94023A   20078.68533952  .00000304  00000-0  18543-3 0  9997
2 23087  71.0542  57.3725 0007299 129.0437 231.1336 14.13803335336612
SL-16 R/B               
1 23088U 94023B   20078.75374127 -.00000087  00000-0 -20256-4 0  9998
2 23088  71.0010 331.4946 0003419 334.6307  25.4647 14.14678312337755
SL-16 R/B               
1 23343U 94074B   20079.19014777  .00000006  00000-0  82179-5 0  9991
2 23343  98.0120 132.9288 0008264  83.3633 313.3264 14.76814643365309
SL-16 R/B               
1 23405U 94077B   20078.94281410 -.00000102  00000-0 -27610-4 0  9992
2 23405  70.9817 260.7679 0004871 252.1847 107.8744 14.15221212307804
ERS-2                   
1 23560U 95021A   20078.63661019  .00000661  00000-0  31838-4 0  9992
2 23560  98.5270 219.8053 0004600 115.6262 244.5447 15.23059906328328
ARIANE 40+ R/B          
1 23561U 95021B   20078.52290374  .00000015  00000-0  20127-4 0  9995
2 23561  98.7363 116.2655 0007463 156.0123 336.4208 14.37959624305722
SL-16 R/B               
1 23705U 95058B   20079.10969374  .00000090  00000-0  70972-4 0  9999
2 23705  71.0192  78.5055 0013764 213.0246 147.0018 14.15132831259497
SL-16 R/B               
1 24298U 96051B   20078.79809495  .00000114  00000-0  88030-4 0  9993
2 24298  70.8401 101.6347 0014646 140.2915 219.9280 14.12489858213818
ORBVIEW 2 (SEASTAR)     
1 24883U 97037A   20079.22351138  .00000016  00000-0  21881-4 0  9995
2 24883  98.5993 193.0230 0002659  37.3104 322.8264 14.33544367196045
SL-16 R/B               
1 25400U 98043G   20079.09479524 -.00000022  00000-0  89660-5 0  9992
2 25400  98.6004  16.7246 0008954 234.9480 125.0860 14.25450070128373
SL-16 R/B               
1 25407U 98045B   20079.25763431  .00000086  00000-0  67946-4 0  9993
2 25407  71.0089  87.1597 0005798 123.5100 236.6577 14.15799491118582
ISS (ZARYA)             
1 25544U 98067A   20079.50924280  .00001273  00000-0  31054-4 0  9998
2 25544  51.6443  72.1785 0006227  42.7271 102.4436 15.49257665218118
SL-8 R/B                
1 25723U 99022C   20079.20265222  .00016807  00000-0  13242-3 0  9997
2 25723  48.4108 139.2775 0007039 271.1699  88.8447 15.71447378163774
CZ-4B R/B               
1 25732U 99025C   20078.72465105 -.00000023  00000-0  10858-4 0  9993
2 25732  98.9550 106.7864 0038354 108.7375  25.5303 14.17673838 79106
OKEAN-O                 
1 25860U 99039A   20078.64324470  .00000021  00000-0  10715-4 0  9999
2 25860  98.2209  96.0279 0001652 111.3560 248.7826 14.76650649112208
SL-16 R/B               
1 25861U 99039B   20079.12031123  .00000013  00000-0  93283-5 0  9997
2 25861  98.2072  79.4994 0017003  88.2491 316.3887 14.78567885114413
